name	company_name	address	zip	phone	email
James	"Benton, John B Jr"	"6649 N Blue Gum St, New Orleans, Orleans, LA"	70116	504-621-8927	jbutt@gmail.com
Josephine	"Chanay, Jeffrey A Esq"	"4 B Blue Ridge Blvd, Brighton, Livingston, MI"	48116	810-292-9388	josephine_darakjy@darakjy.org
Art	"Chemel, James L Cpa"	"8 W Cerritos Ave #54, Bridgeport, Gloucester, NJ"	8014	856-636-8749	art@venere.org
Lenna	Feltz Printing Service	"639 Main St, Anchorage, Anchorage, AK"	99501	907-385-4412	lpaprocki@hotmail.com
Donette	Printing Dimensions	"34 Center St, Hamilton, Butler, OH"	45011	513-570-1893	donette.foller@cox.net
Simona	"Chapman, Ross E Esq"	"3 Mcauley Dr, Ashland, Ashland, OH"	44805	419-503-2484	simona@morasca.com
Mitsue	Morlong Associates	"7 Eads St, Chicago, Cook, IL"	60632	773-573-6914	mitsue_tollner@yahoo.com
Leota	Commercial Press	"7 W Jackson Blvd, San Jose, Santa Clara, CA"	95111	408-752-3500	leota@hotmail.com
Sage	Truhlar And Truhlar Attys	"5 Boston Ave #88, Sioux Falls, Minnehaha, SD"	57105	605-414-2147	sage_wieser@cox.net
Kris	"King, Christopher A Esq"	"228 Runamuck Pl #2808, Baltimore, Baltimore City, MD"	21224	410-655-8723	kris@gmail.com
Minna	"Dorl, James J Esq"	"2371 Jerrold Ave, Kulpsville, Montgomery, PA"	19443	215-874-1229	minna_amigon@yahoo.com
Abel	Rangoni Of Florence	"37275 St  Rt 17m M, Middle Island, Suffolk, NY"	11953	631-335-3414	amaclead@gmail.com
Kiley	Feiner Bros	"25 E 75th St #69, Los Angeles, Los Angeles, CA"	90034	310-498-5651	kiley.caldarera@aol.com
Graciela	Buckley Miller & Wright	"98 Connecticut Ave Nw, Chagrin Falls, Geauga, OH"	44023	440-780-8425	gruta@cox.net
Cammy	"Rousseaux, Michael Esq"	"56 E Morehead St, Laredo, Webb, TX"	78045	956-537-6195	calbares@gmail.com
Mattie	Century Communications	"73 State Road 434 E, Phoenix, Maricopa, AZ"	85013	602-277-4385	mattie@aol.com
Meaghan	"Bolton, Wilbur Esq"	"69734 E Carrillo St, Mc Minnville, Warren, TN"	37110	931-313-9635	meaghan@hotmail.com
Gladys	T M Byxbee Company Pc	"322 New Horizon Blvd, Milwaukee, Milwaukee, WI"	53207	414-661-9598	gladys.rim@rim.org
Yuki	Farmers Insurance Group	"1 State Route 27, Taylor, Wayne, MI"	48180	313-288-7937	yuki_whobrey@aol.com
